P/2011 UA134 (Spacewatch-PANSTARRS),e,10.4406,40.4001,32.4206,5.610478,0.0741659,0.63010739,332.0536,02/06.0/2024,2000,g 17.5,4.0
# From MPEC 2023-UR6
P/2011 V1 (Boattini),e,7.3843,46.4826,269.6774,3.855310,0.1302013,0.54869382,254.8733,02/06.0/2024,2000,g 15.5,4.0
# From MPC 82718
P/2011 W1 (PANSTARRS),e,3.7172,161.8288,282.8587,4.670699,0.0976408,0.28852002,71.0193,02/06.0/2024,2000,g 11.5,4.0
# From MPC 79342
P/2011 Y2 (Boattini),e,6.3854,309.3366,131.9924,6.234181,0.0633191,0.71097849,275.5185,02/06.0/2024,2000,g 15.0,4.0
# From MPEC 2022-K19
P/2012 B1 (PANSTARRS),e,7.6094,36.2161,162.1478,6.534755,0.0590011,0.40954692,228.5713,02/06.0/2024,2000,g  9.0,4.0
# From MPC 78590
P/2012 C3 (PANSTARRS),e,9.0920,135.3677,344.9542,9.748681,0.0323806,0.63011148,359.9758,10/06.0/2011,2000,g 13.0,4.0
# From MPC 84931
P/2012 F2 (PANSTARRS),e,14.6987,226.9590,33.2543,6.341585,0.0617174,0.54026167,244.5909,02/06.0/2024,2000,g 12.0,4.0
# From MPEC 2022-ED3
P/2012 G1 (PANSTARRS),e,12.1686,283.2550,266.0785,4.164370,0.1159792,0.32904585,142.0404,02/06.0/2024,2000,g 15.0,4.0
# From MPC 80898
P/2012 K3 (Gibbs),e,13.1853,125.8168,172.2113,3.630278,0.1424932,0.42190864,233.0410,02/06.0/2024,2000,g 15.0,4.0
# From MPC 88326
P/2012 NJ (La Sagra),e,84.4682,315.6360,338.4077,8.467694,0.0399997,0.84644357,170.1201,02/06.0/2024,2000,g 14.5,4.0
# From MPC 81470
P/2012 O1 (McNaught),e,7.4277,91.9511,238.3029,3.542378,0.1478297,0.59383050,266.2755,02/06.0/2024,2000,g 17.5,4.0
# From MPC 80899
P/2012 O2 (McNaught),e,24.4620,120.6770,183.4585,3.627798,0.1426394,0.53142797,247.9559,02/06.0/2024,2000,g 17.0,4.0
# From MPC 82320
P/2012 T2 (PANSTARRS),e,12.5704,73.8815,310.9108,5.722879,0.0719917,0.16249888,282.4398,02/06.0/2024,2000,g 10.0,4.0
# From MPC 80900
P/2012 T3 (PANSTARRS),e,9.5569,114.3546,195.5212,6.153315,0.0645714,0.61603196,277.3083,02/06.0/2024,2000,g 15.0,4.0
# From MPC 82720
P/2012 U2 (PANSTARRS),e,10.7626,185.3271,228.3219,7.128092,0.0517898,0.50055233,211.9992,02/06.0/2024,2000,g 12.5,4.0
# From MPC 84024
P/2012 US27 (Siding Spring),e,39.3665,49.2292,0.8465,5.162677,0.0840217,0.64843271,338.3076,02/06.0/2024,2000,g 13.5,4.0
# From MPC 82721
P/2012 WA34 (Lemmon-PANSTARRS),e,6.0789,93.7402,356.4973,4.677826,0.0974177,0.34341360,20.6476,02/06.0/2024,2000,g 13.5,4.0
# From MPC 82721
P/2013 AL76 (Catalina),e,144.8823,146.0304,27.0620,6.500745,0.0594647,0.68593431,242.9736,02/06.0/2024,2000,g 16.0,4.0
# From MPC 91612
P/2013 G1 (Kowalski),e,5.4569,221.3112,51.4913,6.902374,0.0543509,0.51024123,202.0258,02/06.0/2024,2000,g 11.0,4.0
# From MPC 84025
P/2013 G4 (PANSTARRS),e,5.9176,339.5949,214.5872,4.435204,0.1055197,0.40904312,62.9929,02/06.0/2024,2000,g 15.0,4.0
# From MPC 91613
P/2013 J2 (McNaught),e,15.5075,289.3381,37.8714,6.225089,0.0634579,0.65662354,241.8574,02/06.0/2024,2000,g 13.0,4.0
# From MPC 86229
P/2013 N3 (PANSTARRS),e,2.1703,17.5389,323.9476,7.399826,0.0489634,0.59214448,178.2564,02/06.0/2024,2000,g 13.0,4.0
# From MPC 85834
P/2013 N5 (PANSTARRS),e,23.4461,187.1724,176.9535,6.797317,0.0556158,0.73220779,214.8334,02/06.0/2024,2000,g 17.0,4.0
# From MPC 85834
P/2013 P1 (PANSTARRS),e,18.7063,160.6401,138.2320,8.588299,0.0391601,0.60341338,156.6284,02/06.0/2024,2000,g 12.0,4.0
# From MPEC 2022-V95
P/2013 R3 (Catalina-PANSTARRS),e,0.8650,342.0422,11.2944,3.030924,0.1867848,0.27556183,351.8631,02/06.0/2024,2000,g 14.0,4.0
# From unp
P/2013 R3-A (Catalina-PANSTARRS),e,0.8641,341.9971,11.3732,3.030683,0.1868071,0.27549331,351.9318,02/06.0/2024,2000,g  9.0,4.0
# From MPEC 2015-M77
P/2013 R3-B (Catalina-PANSTARRS),e,0.8654,342.0530,11.3081,3.030899,0.1867871,0.27553798,351.8585,02/06.0/2024,2000,g  9.0,4.0
# From MPC 85835
P/2013 T1 (PANSTARRS),e,24.2885,10.1057,346.1712,5.855196,0.0695652,0.62405097,266.4842,02/06.0/2024,2000,g 16.5,4.0
# From MPC 86643
P/2013 T2 (Schwartz),e,9.4521,0.8205,345.5807,3.492711,0.1509941,0.50062316,230.7340,02/06.0/2024,2000,g 16.0,4.0
# From MPC 91613
P/2013 W1 (PANSTARRS),e,4.6981,117.8297,1.2225,3.486274,0.1514125,0.59337676,188.2683,02/06.0/2024,2000,g 17.5,4.0
# From MPC101095
P/2013 YG46 (Spacewatch),e,7.8572,48.8445,242.7055,3.280446,0.1658841,0.45583040,65.5591,02/06.0/2024,2000,g 10.0,4.0
# From MPC 89728
P/2014 A2 (Hill),e,24.5567,106.6490,356.1490,5.925257,0.0683350,0.64629211,257.6043,02/06.0/2024,2000,g 15.0,4.0
# From MPEC 2024-C04
P/2014 A3 (PANSTARRS),e,13.7175,229.9780,214.2362,4.607407,0.0996596,0.24637990,28.8161,02/06.0/2024,2000,g 12.0,4.0
# From MPC102095
P/2014 C1 (TOTAS),e,2.6919,167.8824,24.0135,3.028939,0.1869684,0.45188782,327.8610,02/06.0/2024,2000,g 15.5,4.0
# From MPEC 2022-WD2
C/2014 F3 (Sheppard-Trujillo),e,6.5220,326.0464,4.9910,14.44418,0.0179541,0.60392580,17.6518,02/06.0/2024,2000,g  6.0,4.0
# From MPC 98560
P/2014 L2 (NEOWISE),e,5.1963,149.3582,182.7151,6.307869,0.0622128,0.64713065,216.9250,02/06.0/2024,2000,g 12.0,4.0
# From MPC 90769
P/2014 L3 (Hill),e,6.2623,115.5222,178.6924,8.181880,0.0421138,0.77177898,147.8615,02/06.0/2024,2000,g 16.0,4.0
# From MPC 91614
P/2014 M4 (PANSTARRS),e,3.3451,263.2073,148.0698,5.865433,0.0693831,0.59607400,230.4590,02/06.0/2024,2000,g 15.0,4.0
# From MPEC 2022-K19
P/2014 MG4 (Spacewatch-PANSTARRS),e,9.3646,311.7037,298.9674,5.014240,0.0877802,0.25875886,341.2127,02/06.0/2024,2000,g  9.5,4.0
# From MPC 98560
P/2014 O3 (PANSTARRS),e,7.7908,87.6301,204.7843,7.582851,0.0472014,0.38322047,169.2911,02/06.0/2024,2000,g 10.5,4.0
# From MPEC 2024-A43
C/2014 OG392 (PANSTARRS),e,9.0327,145.8191,254.7966,12.25956,0.0229610,0.18638402,17.8454,02/06.0/2024,2000,g  6.0,4.0
# From MPC 91616
P/2014 U4 (PANSTARRS),e,6.4266,11.9241,347.8496,3.510553,0.1498445,0.46440786,162.9543,02/06.0/2024,2000,g 18.0,4.0
# From MPEC 2024-BE0
C/2014 UN271 (Bernardinelli-Bernstein),h,01/18.5346/2031,95.4352,189.9138,326.1388,1.002928,10.955019,2000,2.5,3.2
# From MPC 95211
P/2014 V1 (PANSTARRS),e,22.5149,166.2104,177.6619,5.479663,0.0768375,0.53398337,253.2055,02/06.0/2024,2000,g 14.0,4.0
# From MPC105542
P/2014 W4 (PANSTARRS),e,15.2866,33.3421,67.6332,6.583550,0.0583464,0.35437033,172.4640,02/06.0/2024,2000,g 11.0,4.0
# From MPC 94281
P/2014 X1 (Elenin),e,26.0530,61.5559,33.8962,6.201674,0.0638176,0.71038185,211.8779,02/06.0/2024,2000,g 15.0,4.0
# From MPC 92275
P/2015 A3 (PANSTARRS),e,172.5478,277.4242,249.5872,7.817677,0.0450908,0.85032212,147.6087,02/06.0/2024,2000,g 20.0,4.0
# From MPC 99270
P/2015 B1 (PANSTARRS),e,18.0692,352.8819,188.7715,9.482427,0.0337540,0.36632705,103.7762,02/06.0/2024,2000,g  8.5,4.0
# From MPC109141
P/2015 B4 (Lemmon-PANSTARRS),e,1.7661,266.1070,227.1381,8.509538,0.0397050,0.56154937,130.5688,02/06.0/2024,2000,g 11.0,4.0
# From MPC101096
P/2015 C1 (TOTAS-Gibbs),e,13.9433,348.7866,178.0149,6.566000,0.0585805,0.56294101,188.0582,02/06.0/2024,2000,g 12.5,4.0
# From MPC109141
P/2015 D5 (Kowalski),e,20.5492,74.0854,39.5997,8.947305,0.0368269,0.49101866,132.3621,02/06.0/2024,2000,g  9.0,4.0
# From MPC 96866
P/2015 D6 (Lemmon-PANSTARRS),e,20.2217,45.7445,124.9598,7.129451,0.0517750,0.36213148,162.9860,02/06.0/2024,2000,g 10.5,4.0
# From MPEC 2024-C04
P/2015 HG16 (PANSTARRS),e,19.0076,57.0607,46.7587,4.796877,0.0938137,0.34893740,336.2078,02/06.0/2024,2000,g 12.5,4.0
# From MPC 95213
P/2015 K5 (PANSTARRS),e,39.9361,134.2665,106.2193,6.727609,0.0564824,0.55145957,179.4181,02/06.0/2024,2000,g 13.5,4.0
# From MPC107684
P/2015 M2 (PANSTARRS),e,3.9681,86.7021,225.9490,7.250421,0.0504846,0.17860059,155.0515,02/06.0/2024,2000,g  8.5,4.0
# From MPC 99819
P/2015 P4 (PANSTARRS),e,8.7201,104.7146,280.6811,6.046879,0.0662838,0.58567820,194.4266,02/06.0/2024,2000,g 14.0,4.0
# From MPEC 2022-K19
P/2015 PD229 (Cameron-ISON),e,2.0229,342.7309,352.7194,7.200080,0.0510150,0.32643757,157.9544,02/06.0/2024,2000,g 11.5,2.0
# From MPC 96867
P/2015 Q2 (Pimentel),e,146.5599,228.5616,244.6799,7.352160,0.0494404,0.75126696,151.8171,02/06.0/2024,2000,g 15.5,4.0
# From MPC 98562
P/2015 R1 (PANSTARRS),e,22.6887,48.3745,300.5519,5.881908,0.0690918,0.63374664,217.0515,02/06.0/2024,2000,g 14.0,4.0
# From MPC 95734
P/2015 R2 (PANSTARRS),e,15.4812,168.6118,149.8601,4.483388,0.1038232,0.45243591,327.4325,02/06.0/2024,2000,g 14.5,4.0
# From MPC102953
P/2015 TO19 (Lemmon-PANSTARRS),e,6.5040,321.6620,89.2474,4.549117,0.1015812,0.35968292,293.3436,02/06.0/2024,2000,g 14.0,4.0
# From MPC110080
P/2015 TP200 (LINEAR),e,8.7823,6.9786,82.4745,7.262354,0.0503603,0.53701379,133.6359,02/06.0/2024,2000,g 11.0,4.0
# From MPC101098
P/2015 W2 (Catalina),e,11.6146,294.1432,117.5940,7.291157,0.0500621,0.63558513,152.3908,02/06.0/2024,2000,g 13.0,4.0
# From MPEC 2023-J29
P/2015 X3 (PANSTARRS),e,24.4201,77.2560,306.9098,5.001163,0.0881247,0.44011402,272.7400,02/06.0/2024,2000,g 15.0,4.0
# From MPC115881
P/2015 X6 (PANSTARRS),e,4.5654,106.9382,329.8268,2.751335,0.2159677,0.17355358,260.4730,02/06.0/2024,2000,g 16.0,4.0
# From MPC100282
P/2016 A2 (Christensen),e,26.4052,291.5951,141.3273,4.753532,0.0950998,0.27125501,300.5693,02/06.0/2024,2000,g 11.5,4.0
# From MPEC 2022-OB6
P/2016 A3 (PANSTARRS),e,8.5142,187.1843,340.8305,7.873229,0.0446144,0.38632129,110.5457,02/06.0/2024,2000,g 10.0,4.0
# From MPC102098
P/2016 A7 (PANSTARRS),e,16.6084,221.4615,352.4774,5.036466,0.0871997,0.56572077,254.1029,02/06.0/2024,2000,g 16.0,4.0
# From MPEC 2021-P47
P/2016 G1 (PANSTARRS),e,10.9710,204.0169,111.1221,2.583784,0.2373120,0.21027629,249.6059,02/06.0/2024,2000,g 14.0,4.0
# From MPEC 2017-D91
P/2016 J1-A (PANSTARRS),e,14.3182,199.9136,47.6154,3.180952,0.1737274,0.22688907,123.9233,02/06.0/2024,2000,g 16.5,4.0
# From MPEC 2017-A77
P/2016 J1-B (PANSTARRS),e,14.3210,199.9189,47.5071,3.180593,0.1737569,0.22673390,124.0816,02/06.0/2024,2000,g 17.0,4.0
# From MPEC 2024-C04
C/2016 J2 (Denneau),h,04/13.8347/2016,130.3290,186.4545,318.4389,1.000591,1.499554,2000,17.0,4.0
# From MPC102099
P/2016 P1 (PANSTARRS),e,24.3827,319.4819,270.6015,3.201690,0.1720423,0.28850107,166.8805,02/06.0/2024,2000,g 15.0,4.0
# From MPEC 2023-R20
